EOSSAT-1                
1 55053U 23001AW  26068.73619225  .00007695  00000+0  24844-3 0  9992
2 55053  97.3357 130.2294 0011263 110.3168 249.9285 15.32339828176689
STARLINK-35616          
1 66255U 25245X   26068.81624688  .00025715  00000+0  87701-3 0  9992
2 66255  53.1574 283.4641 0001416 133.3081 226.8038 15.30212716 21279
